STARLINK-5493           
1 55333U 23013C   24061.50708602  .00001633  00000+0  13595-3 0  9997
2 55333  43.0040 351.7525 0002525 261.6635  98.3921 15.02542194 60666
STARLINK-5652           
1 55334U 23013D   24061.88213161  .00000644  00000+0  63990-4 0  9996
2 55334  43.0050 347.6313 0001088 276.9442  83.1276 15.01723727 60741
STARLINK-5660           
1 55335U 23013E   24061.83615583  .00001020  00000+0  90561-4 0  9999
2 55335  43.0034 349.9228 0000935 279.1896  80.8841 15.02534101 60718
STARLINK-5655           
1 55336U 23013F   24061.95048431  .00002516  00000+0  20125-3 0  9994
2 55336  43.0024 335.9630 0000948 286.3496  73.7242 15.02541356 61313
STARLINK-5667           
1 55337U 23013G   24061.48403792  .00000518  00000+0  53381-4 0  9999
2 55337  43.0014 338.5269 0000911 284.7732  75.3009 15.02537237 60811
STARLINK-5658           
1 55338U 23013H   24062.09983981  .00004624  00000+0  35704-3 0  9991
2 55338  43.0030 348.4625 0001214 264.9162  95.1542 15.02546673 61187
STARLINK-5671           
1 55339U 23013J   24062.09429212  .00001004  00000+0  89345-4 0  9994
2 55339  43.0046 348.4177 0001133 269.3365  90.7348 15.02539095 61186
STARLINK-5675           
1 55340U 23013K   24061.49377739  .00000634  00000+0  62005-4 0  9997
2 55340  43.0040 351.6515 0000853 277.8336  82.2410 15.02535463 60667
STARLINK-5670           
1 55341U 23013L   24061.49821183  .00000354  00000+0  41239-4 0  9990
2 55341  43.0052 351.6848 0001196 273.0438  87.0267 15.02542744 61093
STARLINK-5657           
1 55342U 23013M   24061.49265915  .00001277  00000+0  10957-3 0  9993
2 55342  43.0036 351.6441 0001278 269.2226  90.8470 15.02545232 60663
STARLINK-5661           
1 55343U 23013N   24061.48711323  .00005969  00000+0  45644-3 0  9995
2 55343  43.0021 351.6019 0001249 276.5635  83.5065 15.02545952 60660
STARLINK-5662           
1 55344U 23013P   24061.48933700  .00000399  00000+0  44577-4 0  9998
2 55344  43.0047 351.6187 0001050 271.7570  88.3152 15.02538537 60661
STARLINK-5653           
1 55345U 23013Q   24061.48737135  .00001843  00000+0  15141-3 0  9992
2 55345  43.0003 338.5796 0000992 276.6934  83.3795 15.02540922 60812
STARLINK-5631           
1 55346U 23013R   24061.48378701  .00002278  00000+0  18366-3 0  9998
2 55346  43.0038 351.5773 0001251 274.5963  85.4737 15.02538551 60666
STARLINK-5663           
1 55347U 23013S   24061.20677106  .00001974  00000+0  16112-3 0  9999
2 55347  43.0026 352.9383 0001257 263.9889  96.0810 15.02541294 60625
STARLINK-5609           
1 55348U 23013T   24061.21565962  .00004838  00000+0  37289-3 0  9997
2 55348  43.0033 353.0054 0000745 244.6304 115.4461 15.02544539 60623
STARLINK-5666           
1 55349U 23013U   24061.21232300  .00001228  00000+0  10593-3 0  9994
2 55349  43.0032 352.9795 0001464 274.2457  85.8218 15.02543062 60620
STARLINK-5668           
1 55350U 23013V   24061.20899045 -.00001550  00000+0 -99686-4 0  9991
2 55350  43.0020 352.9548 0001130 256.9144 103.1572 15.02543067 61055
STARLINK-5659           
1 55351U 23013W   24061.53028859  .00000266  00000+0  34765-4 0  9993
2 55351  43.0081 351.0621 0000688 275.2458  84.8306 15.02538144 61100
STARLINK-5547           
1 55352U 23013X   24061.20344654  .00000980  00000+0  87617-4 0  9999
2 55352  43.0017 352.9149 0001121 265.8564  94.2150 15.02535550 60627
STARLINK-5608           
1 55353U 23013Y   24061.98119620  .00001905  00000+0  15601-3 0  9999
2 55353  43.0040 348.4302 0001215 270.1680  89.9023 15.02543636 61172
STARLINK-5649           
1 55354U 23013Z   24061.53361303 -.00003974  00000+0 -27920-3 0  9995
2 55354  43.0041 351.0905 0001175 272.2280  87.8427 15.02542683 61106
STARLINK-5647           
1 55355U 23013AA  24062.05877107  .00000066  00000+0  19930-4 0  9998
2 55355  43.0040 348.1333 0001363 259.8582 100.2107 15.02543168 61185
STARLINK-5651           
1 55357U 23013AC  24061.99007332  .00002876  00000+0  22783-3 0  9997
2 55357  43.0016 348.4940 0001053 279.1397  80.9326 15.02544947 61174
STARLINK-5622           
1 55358U 23013AD  24062.05988506  .00000873  00000+0  79656-4 0  9994
2 55358  43.0028 348.1567 0001004 280.1086  79.9643 15.02543640 61183
STARLINK-5641           
1 55359U 23013AE  24061.52140402  .00002504  00000+0  20031-3 0  9996
2 55359  43.0023 350.9966 0001360 272.1504  87.9183 15.02543170 61102
STARLINK-5664           
1 55360U 23013AF  24061.23858425  .00001952  00000+0  15947-3 0  9993
2 55360  43.0030   5.3035 0001390 262.2691  97.7994 15.02542846 60488
STARLINK-5665           
1 55361U 23013AG  24061.47516429  .00002516  00000+0  20120-3 0  9991
2 55361  43.0008 338.5054 0000770 280.4588  79.6167 15.02538891 60817
STARLINK-5574           
1 55362U 23013AH  24062.07678947 -.00000455  00000+0 -18615-4 0  9992
2 55362  43.0040 335.2758 0001287 267.3873  92.6822 15.02545543 61337
STARLINK-5648           
1 55363U 23013AJ  24062.01645185  .00001927  00000+0  15760-3 0  9995
2 55363  43.0027   1.6843 0001071 265.0565  95.0155 15.02547859 61020
STARLINK-5627           
1 55364U 23013AK  24061.98452923  .00001376  00000+0  11688-3 0  9990
2 55364  43.0030 348.4516 0001219 276.2819  83.7884 15.02536023 61174
STARLINK-5639           
1 55365U 23013AL  24061.54445371  .00001584  00000+0  13232-3 0  9990
2 55365  43.0028   4.1602 0001025 273.8488  86.2237 15.02537758 60528
STARLINK-5654           
1 55366U 23013AM  24061.48071666 -.00000370  00000+0 -12305-4 0  9991
2 55366  43.0004 338.5468 0000658 279.9598  80.1170 15.02535130 60810
STARLINK-5635           
1 55367U 23013AN  24062.03028996  .00001173  00000+0  10189-3 0  9999
2 55367  43.0053 335.7767 0001225 286.7189  73.3519 15.02543179 61329
STARLINK-5625           
1 55368U 23013AP  24061.20592055  .00003788  00000+0  29528-3 0  9991
2 55368  43.0067 339.9170 0001011 256.8302 103.2428 15.02542333 60778
STARLINK-5644           
1 55369U 23013AQ  24062.07517075  .00012264  00000+0  92232-3 0  9998
2 55369  43.0037   1.2612 0000772 276.5601  83.5153 15.02495900 61032
STARLINK-5027           
1 55370U 23013AR  24062.07959765  .00002258  00000+0  18209-3 0  9990
2 55370  43.0048   1.2996 0001209 270.2788  89.7916 15.02546667 61036
STARLINK-5590           
1 55371U 23013AS  24061.79926779  .00002133  00000+0  17290-3 0  9999
2 55371  43.0023   2.6319 0001066 281.9486  78.1237 15.02539208 61489
STARLINK-5568           
1 55372U 23013AT  24062.07182790  .00000753  00000+0  70780-4 0  9999
2 55372  43.0046   1.2369 0001193 263.3061  96.7645 15.02548775 61038
STARLINK-5581           
1 55373U 23013AU  24061.56110405  .00000635  00000+0  62047-4 0  9993
2 55373  43.0025   4.2779 0000998 284.7317  75.3415 15.02537079 60950
STARLINK-5578           
1 55374U 23013AV  24061.53668626  .00000422  00000+0  46288-4 0  9997
2 55374  43.0060   4.1010 0000998 277.4481  82.6248 15.02536378 60954
STARLINK-5588           
1 55375U 23013AW  24061.79260550  .00002025  00000+0  16492-3 0  9994
2 55375  43.0036   2.5819 0000871 288.4608  71.6139 15.02536943 60562
STARLINK-5586           
1 55376U 23013AX  24061.50070262  .00007124  00000+0  54215-3 0  9993
2 55376  43.0021 338.6846 0001111 260.4890  99.5827 15.02516151 60811
STARLINK-5567           
1 55377U 23013AY  24061.84576767  .00003427  00000+0  26868-3 0  9997
2 55377  43.0039   2.1186 0001280 259.4829 100.5870 15.02533514 61003
STARLINK-5572           
1 55378U 23013AZ  24062.06184768  .00000615  00000+0  60602-4 0  9990
2 55378  43.0048   1.1635 0001140 269.0273  91.0438 15.02536378 61035
STARLINK-5569           
1 55379U 23013BA  24061.52001255 -.00008916  00000+0 -64485-3 0  9996
2 55379  43.0025   3.9749 0002009 275.8995  84.1619 15.02588192 60953
STARLINK-5571           
1 55380U 23013BB  24062.06237316  .00002780  00000+0  22074-3 0  9996
2 55380  43.0029 335.1698 0001208 272.5641  87.5063 15.02540441 61332
STARLINK-5575           
1 55381U 23013BC  24061.84909530  .00001780  00000+0  14680-3 0  9999
2 55381  43.0041   2.1426 0001341 263.9347  96.1343 15.02530589 60576
STARLINK-5576           
1 55382U 23013BD  24062.05519013  .00000919  00000+0  83102-4 0  9996
2 55382  43.0026   1.1123 0000957 287.7490  72.3248 15.02533113 61036
STARLINK-5531           
1 55383U 23013BE  24062.05903133  .00000790  00000+0  73525-4 0  9992
2 55383  43.0030 335.1412 0001171 259.6617 100.4093 15.02539633 61338
STARLINK-5537           
1 55384U 23013BF  24062.05296951  .00001532  00000+0  12845-3 0  9998
2 55384  43.0036   1.0971 0000960 288.3113  71.7625 15.02534979 61035
STARLINK-5556           
1 55385U 23013BG  24061.24080256  .00003759  00000+0  29311-3 0  9997
2 55385  43.0043   5.3210 0001316 270.4066  89.6625 15.02543760 60486
STARLINK-5555           
1 55386U 23013BH  24061.84243631  .00001253  00000+0  10779-3 0  9997
2 55386  43.0044   2.0922 0001289 265.5795  94.4900 15.02532526 60573
STARLINK-5077           
1 55391U 23014A   24061.59356317  .00000333  00000+0  36424-4 0  9996
2 55391  69.9993 124.7395 0003157 270.9970  89.0827 14.97525569 61511
STARLINK-5085           
1 55392U 23014B   24062.14064224  .00000275  00000+0  30840-4 0  9993
2 55392  69.9992 103.9737 0003031 271.5720  88.5092 14.98333801 61134
STARLINK-4786           
1 55393U 23014C   24061.55272003 -.00000645  00000+0 -46277-4 0  9998
2 55393  70.0004 125.4187 0002764 267.3725  92.7117 14.98327540 61497
STARLINK-5230           
1 55394U 23014D   24061.61530039  .00005736  00000+0  48837-3 0  9999
2 55394  70.0002 125.2238 0002398 263.4176  96.6710 14.98312949 60567
STARLINK-5274           
1 55395U 23014E   24061.56089490 -.00000104  00000+0 -88677-6 0  9999
2 55395  69.9999 125.4237 0002979 270.3987  89.6830 14.98334470 61494
STARLINK-5283           
1 55396U 23014F   24061.55672932 -.00000169  00000+0 -63584-5 0  9998
2 55396  70.0003 125.4212 0002846 266.8739  93.2095 14.98327650 61491
